{
  "norad_id": 68975,
  "name": "STARLINK-36667",
  "history": [
    {
      "epoch": "2026-05-12T20:00:01.999008Z",
      "apogee_km": 328.73362111926144,
      "perigee_km": 326.9498307781587,
      "latitude_deg": 48.59191670494501,
      "longitude_deg": -141.42197697729563,
      "height_km": 332.4478605837715,
      "semi_major_axis_km": 6705.97872594871,
      "eccentricity": 0.000133,
      "inclination_deg": 53.1592,
      "raan_deg": 331.5401,
      "arg_perigee_deg": 81.1264,
      "mean_anomaly_deg": 348.1042,
      "mean_motion_rev_day": 15.80918585
    }
  ]
}