STARLINK-36667          
1 68975U 26099AA  26132.83335648  .00006934  00000+0  38566-4 0  9998
2 68975  53.1592 331.5401 0001329  81.1264 348.1042 15.80918585  3034
